*******************************************************************************
Ephemeris / WWW_USER Mon Mar 24 11:11:06 2025 Pasadena, USA      / Horizons    
*******************************************************************************
Target body name: (2018 WD2)                      {source: JPL#7}
Center body name: Earth (399)                     {source: DE441}
Center-site name: Mauna Kea
*******************************************************************************
Start time      : A.D. 2018-Aug-18 04:58:00.0000 UT      
Stop  time      : A.D. 2018-Aug-18 15:53:00.0000 UT      
Step-size       : 1 minutes
*******************************************************************************
Target pole/equ : undefined
Target radii    : undefined                                                    
Center geodetic : 204.5278, 19.8260847, 4.21024   {E-lon(deg),Lat(deg),Alt(km)}
Center cylindric: 204.5278, 6006.35451, 2151.0229 {E-lon(deg),Dxy(km),Dz(km)}
Center pole/equ : ITRF93                          {East-longitude positive}
Center radii    : 6378.137, 6378.137, 6356.752 km {Equator_a, b, pole_c}       
Target primary  : Sun
Vis. interferer : MOON (R_eq= 1737.400) km        {source: DE441}
Rel. light bend : Sun                             {source: DE441}
Rel. lght bnd GM: 1.3271E+11 km^3/s^2                                          
Small-body perts: Yes                             {source: SB441-N16}
Atmos refraction: NO (AIRLESS)
RA format       : HMS
Time format     : CAL 
Calendar mode   : Mixed Julian/Gregorian
RTS-only print  : NO       
EOP file        : eop.250321.p250617                                           
EOP coverage    : DATA-BASED 1962-JAN-20 TO 2025-MAR-21. PREDICTS-> 2025-JUN-16
Units conversion: 1 au= 149597870.700 km, c= 299792.458 km/s, 1 day= 86400.0 s 
Table cut-offs 1: Elevation (-90.0deg=NO ),Airmass (>38.000=NO), Daylight (YES)
Table cut-offs 2: Solar elongation (  0.0,180.0=NO ),Local Hour Angle( 0.0=NO )
Table cut-offs 3: RA/DEC angular rate (     0.0=NO )                           
*******************************************************************************
Initial IAU76/J2000 heliocentric ecliptic osculating elements (au, days, deg.):
  EPOCH=  2458442.5 ! 2018-Nov-20.00 (TDB)         Residual RMS= .32422        
   EC= .524986067713519    QR= .9778174985080528   TP= 2458471.2675125618      
   OM= 251.0855257113189   W=  198.8561547827716   IN= 2.860917524648221       
  Equivalent ICRF heliocentric cartesian coordinates (au, au/d):
   X= 5.933978759455335E-01  Y= 7.796199626272187E-01  Z= 3.534710331364960E-01
  VX=-1.894544763705440E-02 VY= 7.774789113426014E-03 VZ= 2.252803318104249E-03
Asteroid physical parameters (km, seconds, rotational period in hours):        
   GM= n.a.                RAD= n.a.               ROTPER= n.a.                
   H= 26.2                 G= .150                 B-V= n.a.                   
                           ALBEDO= n.a.            STYP= n.a.                  
*******************************************************************************
 Date__(UT)__HR:MN     R.A._________(ICRF)_________DEC
******************************************************
$$SOE
 2018-Aug-18 11:07     00 52 06.814655 +11 42 42.57496
 2018-Aug-18 11:08     00 52 06.848165 +11 42 42.96963
 2018-Aug-18 11:09     00 52 06.881668 +11 42 43.36427
 2018-Aug-18 11:10     00 52 06.915162 +11 42 43.75887
 2018-Aug-18 11:11     00 52 06.948649 +11 42 44.15344
 2018-Aug-18 11:12     00 52 06.982128 +11 42 44.54798
 2018-Aug-18 11:13     00 52 07.015600 +11 42 44.94248
 2018-Aug-18 11:14     00 52 07.049063 +11 42 45.33696
 2018-Aug-18 11:15     00 52 07.082520 +11 42 45.73139
 2018-Aug-18 11:16     00 52 07.115968 +11 42 46.12580
 2018-Aug-18 11:17     00 52 07.149410 +11 42 46.52017
 2018-Aug-18 11:18     00 52 07.182844 +11 42 46.91451
 2018-Aug-18 11:19     00 52 07.216270 +11 42 47.30881
 2018-Aug-18 11:20     00 52 07.249689 +11 42 47.70308
 2018-Aug-18 11:21     00 52 07.283101 +11 42 48.09732
 2018-Aug-18 11:22     00 52 07.316506 +11 42 48.49153
 2018-Aug-18 11:23     00 52 07.349903 +11 42 48.88569
 2018-Aug-18 11:24     00 52 07.383293 +11 42 49.27983
 2018-Aug-18 11:25     00 52 07.416677 +11 42 49.67393
 2018-Aug-18 11:26     00 52 07.450053 +11 42 50.06800
 2018-Aug-18 11:27     00 52 07.483422 +11 42 50.46203
 2018-Aug-18 11:28     00 52 07.516784 +11 42 50.85603
 2018-Aug-18 11:29     00 52 07.550140 +11 42 51.24999
 2018-Aug-18 11:30     00 52 07.583488 +11 42 51.64392
 2018-Aug-18 11:31     00 52 07.616830 +11 42 52.03782
 2018-Aug-18 11:32     00 52 07.650165 +11 42 52.43168
 2018-Aug-18 11:33     00 52 07.683493 +11 42 52.82550
 2018-Aug-18 11:34     00 52 07.716814 +11 42 53.21929
 2018-Aug-18 11:35     00 52 07.750129 +11 42 53.61304
 2018-Aug-18 11:36     00 52 07.783438 +11 42 54.00676
 2018-Aug-18 11:37     00 52 07.816740 +11 42 54.40045
 2018-Aug-18 11:38     00 52 07.850035 +11 42 54.79410
 2018-Aug-18 11:39     00 52 07.883324 +11 42 55.18771
 2018-Aug-18 11:40     00 52 07.916607 +11 42 55.58129
 2018-Aug-18 11:41     00 52 07.949883 +11 42 55.97483
 2018-Aug-18 11:42     00 52 07.983153 +11 42 56.36834
 2018-Aug-18 11:43     00 52 08.016417 +11 42 56.76181
 2018-Aug-18 11:44     00 52 08.049675 +11 42 57.15525
 2018-Aug-18 11:45     00 52 08.082927 +11 42 57.54865
 2018-Aug-18 11:46     00 52 08.116172 +11 42 57.94202
 2018-Aug-18 11:47     00 52 08.149412 +11 42 58.33534
 2018-Aug-18 11:48     00 52 08.182646 +11 42 58.72864
 2018-Aug-18 11:49     00 52 08.215873 +11 42 59.12189
 2018-Aug-18 11:50     00 52 08.249095 +11 42 59.51511
 2018-Aug-18 11:51     00 52 08.282311 +11 42 59.90830
 2018-Aug-18 11:52     00 52 08.315521 +11 43 00.30145
 2018-Aug-18 11:53     00 52 08.348726 +11 43 00.69456
 2018-Aug-18 11:54     00 52 08.381925 +11 43 01.08763
 2018-Aug-18 11:55     00 52 08.415118 +11 43 01.48067
 2018-Aug-18 11:56     00 52 08.448306 +11 43 01.87367
 2018-Aug-18 11:57     00 52 08.481489 +11 43 02.26664
 2018-Aug-18 11:58     00 52 08.514665 +11 43 02.65957
 2018-Aug-18 11:59     00 52 08.547837 +11 43 03.05246
 2018-Aug-18 12:00     00 52 08.581003 +11 43 03.44531
 2018-Aug-18 12:01     00 52 08.614164 +11 43 03.83813
 2018-Aug-18 12:02     00 52 08.647319 +11 43 04.23091
 2018-Aug-18 12:03     00 52 08.680470 +11 43 04.62366
 2018-Aug-18 12:04     00 52 08.713615 +11 43 05.01637
 2018-Aug-18 12:05     00 52 08.746755 +11 43 05.40904
 2018-Aug-18 12:06     00 52 08.779891 +11 43 05.80167
 2018-Aug-18 12:07     00 52 08.813021 +11 43 06.19426
 2018-Aug-18 12:08     00 52 08.846146 +11 43 06.58682
 2018-Aug-18 12:09     00 52 08.879267 +11 43 06.97934
 2018-Aug-18 12:10     00 52 08.912382 +11 43 07.37182
 2018-Aug-18 12:11     00 52 08.945493 +11 43 07.76427
 2018-Aug-18 12:12     00 52 08.978599 +11 43 08.15668
 2018-Aug-18 12:13     00 52 09.011701 +11 43 08.54905
 2018-Aug-18 12:14     00 52 09.044798 +11 43 08.94138
 2018-Aug-18 12:15     00 52 09.077890 +11 43 09.33368
 2018-Aug-18 12:16     00 52 09.110978 +11 43 09.72593
 2018-Aug-18 12:17     00 52 09.144061 +11 43 10.11815
 2018-Aug-18 12:18     00 52 09.177140 +11 43 10.51033
 2018-Aug-18 12:19     00 52 09.210215 +11 43 10.90248
 2018-Aug-18 12:20     00 52 09.243285 +11 43 11.29458
 2018-Aug-18 12:21     00 52 09.276351 +11 43 11.68665
 2018-Aug-18 12:22     00 52 09.309413 +11 43 12.07868
 2018-Aug-18 12:23     00 52 09.342471 +11 43 12.47067
 2018-Aug-18 12:24     00 52 09.375525 +11 43 12.86262
 2018-Aug-18 12:25     00 52 09.408574 +11 43 13.25454
 2018-Aug-18 12:26     00 52 09.441620 +11 43 13.64641
 2018-Aug-18 12:27     00 52 09.474662 +11 43 14.03825
 2018-Aug-18 12:28     00 52 09.507700 +11 43 14.43005
 2018-Aug-18 12:29     00 52 09.540734 +11 43 14.82181
 2018-Aug-18 12:30     00 52 09.573765 +11 43 15.21353
 2018-Aug-18 12:31     00 52 09.606792 +11 43 15.60521
 2018-Aug-18 12:32     00 52 09.639815 +11 43 15.99686
 2018-Aug-18 12:33     00 52 09.672834 +11 43 16.38847
 2018-Aug-18 12:34     00 52 09.705850 +11 43 16.78003
 2018-Aug-18 12:35     00 52 09.738863 +11 43 17.17156
 2018-Aug-18 12:36     00 52 09.771872 +11 43 17.56305
 2018-Aug-18 12:37     00 52 09.804878 +11 43 17.95450
 2018-Aug-18 12:38     00 52 09.837880 +11 43 18.34592
 2018-Aug-18 12:39     00 52 09.870880 +11 43 18.73729
 2018-Aug-18 12:40     00 52 09.903876 +11 43 19.12863
 2018-Aug-18 12:41     00 52 09.936868 +11 43 19.51992
 2018-Aug-18 12:42     00 52 09.969858 +11 43 19.91118
 2018-Aug-18 12:43     00 52 10.002845 +11 43 20.30240
 2018-Aug-18 12:44     00 52 10.035829 +11 43 20.69357
 2018-Aug-18 12:45     00 52 10.068810 +11 43 21.08471
 2018-Aug-18 12:46     00 52 10.101788 +11 43 21.47581
 2018-Aug-18 12:47     00 52 10.134763 +11 43 21.86688
 2018-Aug-18 12:48     00 52 10.167735 +11 43 22.25790
 2018-Aug-18 12:49     00 52 10.200705 +11 43 22.64888
 2018-Aug-18 12:50     00 52 10.233672 +11 43 23.03982
 2018-Aug-18 12:51     00 52 10.266636 +11 43 23.43073
 2018-Aug-18 12:52     00 52 10.299598 +11 43 23.82159
 2018-Aug-18 12:53     00 52 10.332558 +11 43 24.21242
 2018-Aug-18 12:54     00 52 10.365515 +11 43 24.60320
 2018-Aug-18 12:55     00 52 10.398469 +11 43 24.99395
 2018-Aug-18 12:56     00 52 10.431422 +11 43 25.38466
 2018-Aug-18 12:57     00 52 10.464372 +11 43 25.77533
 2018-Aug-18 12:58     00 52 10.497320 +11 43 26.16596
 2018-Aug-18 12:59     00 52 10.530265 +11 43 26.55654
 2018-Aug-18 13:00     00 52 10.563209 +11 43 26.94709
 2018-Aug-18 13:01     00 52 10.596151 +11 43 27.33760
 2018-Aug-18 13:02     00 52 10.629090 +11 43 27.72807
 2018-Aug-18 13:03     00 52 10.662028 +11 43 28.11850
 2018-Aug-18 13:04     00 52 10.694964 +11 43 28.50890
 2018-Aug-18 13:05     00 52 10.727898 +11 43 28.89925
 2018-Aug-18 13:06     00 52 10.760830 +11 43 29.28956
 2018-Aug-18 13:07     00 52 10.793761 +11 43 29.67983
 2018-Aug-18 13:08     00 52 10.826690 +11 43 30.07006
 2018-Aug-18 13:09     00 52 10.859617 +11 43 30.46026
